{
    "links": {
        "self": "http://www.neowsapp.com/rest/v1/neo/54048946?api_key=iIulBulltgU6a56xZRHN4H3l9WmuAYTsLGpBGhQ2"
    },
    "id": "54048946",
    "neo_reference_id": "54048946",
    "name": "(2020 OP2)",
    "designation": "2020 OP2",
    "nasa_jpl_url": "http://ssd.jpl.nasa.gov/sbdb.cgi?sstr=54048946",
    "absolute_magnitude_h": 26.022,
    "estimated_diameter": {
        "kilometers": {
            "estimated_diameter_min": 0.0166017923,
            "estimated_diameter_max": 0.0371227362
        },
        "meters": {
            "estimated_diameter_min": 16.6017923143,
            "estimated_diameter_max": 37.1227361632
        },
        "miles": {
            "estimated_diameter_min": 0.0103158723,
            "estimated_diameter_max": 0.0230669917
        },
        "feet": {
            "estimated_diameter_min": 54.4678242966,
            "estimated_diameter_max": 121.7937577136
        }
    },
    "is_potentially_hazardous_asteroid": false,
    "close_approach_data": [
        {
            "close_approach_date": "2020-03-09",
            "close_approach_date_full": "2020-Mar-09 19:38",
            "epoch_date_close_approach": 1583782680000,
            "relative_velocity": {
                "kilometers_per_second": "3.5337559101",
                "kilometers_per_hour": "12721.5212763109",
                "miles_per_hour": "7904.6585952722"
            },
            "miss_distance": {
                "astronomical": "0.3205563359",
                "lunar": "124.6964146651",
                "kilometers": "47954545.065644533",
                "miles": "29797572.5719912354"
            },
            "orbiting_body": "Earth"
        },
        {
            "close_approach_date": "2020-07-10",
            "close_approach_date_full": "2020-Jul-10 15:54",
            "epoch_date_close_approach": 1594396440000,
            "relative_velocity": {
                "kilometers_per_second": "7.3591985207",
                "kilometers_per_hour": "26493.1146745329",
                "miles_per_hour": "16461.7911709618"
            },
            "miss_distance": {
                "astronomical": "0.0307227066",
                "lunar": "11.9511328674",
                "kilometers": "4596051.467994942",
                "miles": "2855853.9545045196"
            },
            "orbiting_body": "Earth"
        }
    ],
    "orbital_data": {
        "orbit_id": "2",
        "orbit_determination_date": "2020-07-27 06:31:23",
        "first_observation_date": "2020-07-19",
        "last_observation_date": "2020-07-26",
        "data_arc_in_days": 7,
        "observations_used": 13,
        "orbit_uncertainty": "8",
        "minimum_orbit_intersection": ".0290485",
        "jupiter_tisserand_invariant": "4.768",
        "epoch_osculation": "2459052.5",
        "eccentricity": ".3094035948982298",
        "semi_major_axis": "1.370073845384223",
        "inclination": "6.063982691268184",
        "ascending_node_longitude": "303.6998564069821",
        "orbital_period": "585.7528232305821",
        "perihelion_distance": ".946168072346303",
        "perihelion_argument": "297.1783688588812",
        "aphelion_distance": "1.793979618422143",
        "perihelion_time": "2458999.613972150511",
        "mean_anomaly": "32.50341999345572",
        "mean_motion": ".6145937086815981",
        "equinox": "J2000",
        "orbit_class": {
            "orbit_class_type": "APO",
            "orbit_class_description": "Near-Earth asteroid orbits which cross the Earth’s orbit similar to that of 1862 Apollo",
            "orbit_class_range": "a (semi-major axis) > 1.0 AU; q (perihelion) < 1.017 AU"
        }
    },
    "is_sentry_object": false
}